STARLINK-1936_new
1 16772C 20074AK  21326.07793972  .00007341  00000-0  49192-3 0  3264
2 16772  53.0512 178.3985 0001955  73.7448 131.4161 15.06384151    10
STARLINK-1936_old
1 26772C 20074AK  21325.16739927  .00004627  00000-0  31008-3 0  3253
2 26772  53.0517 182.4861 0001915  71.8389 232.7247 15.06384619    12
